[
    {
        "Altitude(m)": 607910.9901598268,
        "Argument of Periapsis(deg)": 0.0,
        "Eccentricity": 0.0,
        "Inclination(deg)": 60.0,
        "Latitude(deg)": -14.292837788513422,
        "Longitude(deg)": 123.4426399629081,
        "Mean Anomaly(deg)": 196.36359999999996,
        "RAAN(deg)": 35.0,
        "Satellite Name": "Test1 166",
        "Satellite Number": 166,
        "Semi-Major Axis(m)": 6980739.136638005,
        "Time(s)": 0
    },
    {
        "Altitude(m)": 608060.2231395848,
        "Argument of Periapsis(deg)": 0.00010418945913296404,
        "Eccentricity": 0.0,
        "Inclination(deg)": 60.0,
        "Latitude(deg)": -14.826499348832241,
        "Longitude(deg)": 123.73124896786385,
        "Mean Anomaly(deg)": 196.98370614546178,
        "RAAN(deg)": 34.99957995086025,
        "Satellite Name": "Test1 166",
        "Satellite Number": 166,
        "Semi-Major Axis(m)": 6980739.136638005,
        "Time(s)": 10
    }
]